2023-081A               
1 56846U 23081A   23327.66985815  .00005994  00000+0  28810-3 0  9996
2 56846  97.4125  39.1306 0001830  89.6364 270.5081 15.19183241 25756
2023-081B               
1 56847U 23081B   23328.16697120  .00018644  00000+0  88037-3 0  9995
2 56847  97.4027  39.7548 0000537 157.8295 202.2963 15.19481217 25830
2023-081C               
1 56848U 23081C   23328.12381958  .00029178  00000+0  10864-2 0  9997
2 56848  97.3985  40.3275 0013734  54.7573 305.4950 15.27343936 25875
2023-081D               
1 56849U 23081D   23328.18582501  .00028776  00000+0  10689-2 0  9999
2 56849  97.4006  40.4460 0013274  57.7797 302.4727 15.27431062 25886
2023-081E               
1 56850U 23081E   23328.18262975  .00021545  00000+0  80177-3 0  9998
2 56850  97.4038  40.5227 0013340  56.5433 303.7080 15.27429397 25898
2023-081F               
1 56851U 23081F   23328.16651469  .00019187  00000+0  90570-3 0  9994
2 56851  97.4027  39.1501 0000740 164.5446 195.5811 15.19485468 25790
2023-081G               
1 56852U 23081G   23328.17965997  .00029217  00000+0  10846-2 0  9992
2 56852  97.3988  40.4080 0013902  56.3675 303.8888 15.27439683 25884
2023-081H               
1 56853U 23081H   23328.17285001  .00020716  00000+0  77074-3 0  9996
2 56853  97.4066  40.5918 0014212  56.8891 303.3710 15.27433814 25883
2023-081J               
1 56854U 23081J   23328.17637501  .00029217  00000+0  10841-2 0  9996
2 56854  97.3983  40.4033 0014054  56.4834 303.7745 15.27452970 25881
2023-081K               
1 56855U 23081K   23328.16967891  .00021254  00000+0  79044-3 0  9998
2 56855  97.3989  40.4266 0014217  56.6827 303.5771 15.27441018 25889
2023-081L               
1 56856U 23081L   23328.16674024  .00018949  00000+0  89460-3 0  9992
2 56856  97.4027  39.7550 0001060 155.3885 204.7401 15.19483344 25830
2023-081M               
1 56857U 23081M   23328.15650955  .00024543  00000+0  91117-3 0  9998
2 56857  97.3999  40.4606 0014729  55.0806 305.1814 15.27461857 25887
2023-081N               
1 56858U 23081N   23328.16643733  .00019226  00000+0  90756-3 0  9996
2 56858  97.4027  40.3634 0000063 241.7631 118.3598 15.19484899 25871
2023-081P               
1 56859U 23081P   23328.15328214  .00021383  00000+0  79505-3 0  9996
2 56859  97.4068  40.6179 0015352  54.3706 305.8960 15.27431833 25888
2023-081Q               
1 56860U 23081Q   23328.15006769  .00020425  00000+0  75945-3 0  9996
2 56860  97.3980  40.4338 0015198  52.6472 307.6149 15.27442288 25881
2023-081R               
1 56861U 23081R   23328.14676914  .00020480  00000+0  76129-3 0  9997
2 56861  97.4006  40.4886 0015293  52.2096 308.0526 15.27449952 25883
2023-081S               
1 56862U 23081S   23327.88109063  .00021288  00000+0  79193-3 0  9995
2 56862  97.4042  40.3103 0015250  51.4808 308.7796 15.27416836 25847
2023-081T               
1 56863U 23081T   23328.14016913  .00024513  00000+0  90994-3 0  9993
2 56863  97.4046  40.5854 0014759  50.9264 309.3286 15.27466666 25881
2023-081U               
1 56864U 23081U   23328.20238738  .00019415  00000+0  72192-3 0  9997
2 56864  97.4051  40.6700 0015230  53.0290 307.2340 15.27451330 25898
2023-081V               
1 56865U 23081V   23328.19891563  .00020196  00000+0  75123-3 0  9992
2 56865  97.4051  40.6741 0015270  54.3022 305.9635 15.27431220 25893
2023-081W               
1 56866U 23081W   23328.19622100  .00011008  00000+0  52367-3 0  9999
2 56866  97.4052  39.6140 0018915  51.6047 308.6883 15.19187043 25822
2023-081X               
1 56867U 23081X   23328.19590308  .00020628  00000+0  76704-3 0  9993
2 56867  97.4053  40.6817 0015221  54.9413 305.3251 15.27438733 25891
2023-081Y               
1 56868U 23081Y   23328.12726202  .00020174  00000+0  75075-3 0  9997
2 56868  97.4055  40.6206 0015783  54.9367 305.3350 15.27408700 25898
2023-081AA              
1 56870U 23081AA  23327.90445776  .00020752  00000+0  77213-3 0  9997
2 56870  97.4072  40.3544 0014937  56.7228 303.5440 15.27421064 25841
2023-081AB              
1 56871U 23081AB  23327.89769975  .00021241  00000+0  79065-3 0  9997
2 56871  97.3995  40.1883 0014601  55.1181 305.1428 15.27407415 25846
2023-081AC              
1 56872U 23081AC  23327.90101134  .00020867  00000+0  77619-3 0  9993
2 56872  97.3973  40.1397 0014907  55.6872 304.5775 15.27428899 25841
SZ-15 MODULE            
1 56873U 22162C   23326.22695346  .00080456  00000+0  57440-3 0  9990
2 56873  41.4817 269.0872 0012933 184.7411 175.3312 15.72654325 26756
LONGJIANG 3             
1 56874U 23082A   23328.03271678  .00014516  00000+0  51006-3 0  9998
2 56874  49.1280 140.1830 0009565 266.4614  93.5237 15.29488480 25642
STARLINK-6206           
1 56876U 23083A   23328.05146611 -.00000307  00000+0 -76450-5 0  9998
2 56876  43.0037 308.2335 0000938 255.2280 104.8458 15.02530003 25016
STARLINK-6209           
1 56877U 23083B   23327.97722085 -.00000667  00000+0 -34325-4 0  9997
2 56877  43.0050 308.5356 0001071 267.6742  92.3978 15.02529906 25004
STARLINK-6182           
1 56878U 23083C   23328.11683398 -.00000100  00000+0  76832-5 0  9999
2 56878  43.0052 307.8665 0001248 286.3039  73.7666 15.02532048 25025
STARLINK-5707           
1 56879U 23083D   23328.04702500 -.00001400  00000+0 -88629-4 0  9990
2 56879  43.0042 308.2017 0001225 262.9366  97.1338 15.02528089 25014
STARLINK-6177           
1 56880U 23083E   23328.10351568 -.00000887  00000+0 -50602-4 0  9991
2 56880  43.0045 307.7656 0001102 277.6311  82.4406 15.02531551 25021
STARLINK-5853           
1 56881U 23083F   23327.97388548 -.00001616  00000+0 -10459-3 0  9990
2 56881  43.0046 308.5117 0001371 264.8162  95.2524 15.02529170 25009
STARLINK-6175           
1 56882U 23083G   23328.03148318 -.00000075  00000+0  94917-5 0  9998
2 56882  43.0035 308.0836 0001112 265.0211  95.0504 15.02533867 25017
STARLINK-6171           
1 56883U 23083H   23328.10795361  .00000169  00000+0  27596-4 0  9994
2 56883  43.0015 307.7927 0000996 252.7579 107.3155 15.02527062 25022
STARLINK-5515           
1 56884U 23083J   23328.02482348 -.00001404  00000+0 -88910-4 0  9996
2 56884  43.0044 308.0331 0001275 266.8151  93.2546 15.02533126 25015
STARLINK-5095           
1 56885U 23083K   23328.03370326 -.00001372  00000+0 -86519-4 0  9997
2 56885  43.0027 308.0968 0000779 255.1627 104.9129 15.02530810 25014
STARLINK-5496           
1 56886U 23083L   23328.02371197 -.00000677  00000+0 -35025-4 0  9997
2 56886  43.0042 308.0225 0001688 258.1662 101.8991 15.02526599 25012
STARLINK-6180           
1 56887U 23083M   23328.02815287 -.00001061  00000+0 -63449-4 0  9990
2 56887  43.0048 308.0580 0001143 267.2101  92.8611 15.02533712 25011
STARLINK-6181           
1 56888U 23083N   23328.07687349 -.00001625  00000+0 -10528-3 0  9997
2 56888  43.0030 307.5602 0001029 250.7329 109.3402 15.02529919 25021
STARLINK-6169           
1 56889U 23083P   23328.02038283 -.00004112  00000+0 -28962-3 0  9995
2 56889  43.0046 307.9985 0001190 259.0862 100.9846 15.02523316 25013
STARLINK-5528           
1 56890U 23083Q   23328.01150137  .00001109  00000+0  97175-4 0  9993
2 56890  43.0040 307.9308 0001094 246.3614 113.7113 15.02530494 25019
STARLINK-6213           
1 56891U 23083R   23328.01705380 -.00000767  00000+0 -41753-4 0  9992
2 56891  43.0035 307.9726 0001076 260.3914  99.6807 15.02529470 25011
STARLINK-6219           
1 56892U 23083S   23328.00373617 -.00001601  00000+0 -10345-3 0  9996
2 56892  43.0037 307.8692 0001151 255.3358 104.7357 15.02536755 25017
STARLINK-6216           
1 56893U 23083T   23328.08020106 -.00002973  00000+0 -20516-3 0  9991
2 56893  43.0039 307.5870 0001077 248.8251 111.2477 15.02526046 25020
STARLINK-6144           
1 56894U 23083U   23328.13780164 -.00002580  00000+0 -17602-3 0  9991
2 56894  43.0025 307.1573 0000834 248.5013 111.5740 15.02526205 25039
STARLINK-6208           
1 56895U 23083V   23328.00706897  .00001297  00000+0  11103-3 0  9991
2 56895  43.0033 307.8956 0001013 256.1487 103.9243 15.02535214 25810
STARLINK-6202           
1 56896U 23083W   23328.13003062 -.00002765  00000+0 -18976-3 0  9998
2 56896  43.0031 307.0973 0001092 225.0869 134.9885 15.02526539 25036
STARLINK-6200           
1 56897U 23083X   23328.00040526 -.00001974  00000+0 -13113-3 0  9990
2 56897  43.0038 307.8468 0001456 271.8311  88.2365 15.02529670 25017
STARLINK-6205           
1 56898U 23083Y   23328.05689181 -.00004445  00000+0 -31432-3 0  9992
2 56898  43.0038 307.4108 0001167 259.3280 100.7431 15.02521206 25022
STARLINK-6203           
1 56899U 23083Z   23328.12669937 -.00001219  00000+0 -75205-4 0  9991
2 56899  43.0033 307.0736 0000884 261.2828  98.7914 15.02524690 25039
STARLINK-6207           
1 56900U 23083AA  23327.99411943 -.00001899  00000+0 -12559-3 0  9996
2 56900  43.0037 295.6631 0001309 264.1300  95.9393 15.02530902 25158
STARLINK-6185           
1 56901U 23083AB  23328.12115038 -.00000274  00000+0 -52260-5 0  9990
2 56901  43.0024 307.0300 0001047 259.9477 100.1247 15.02536275 25035
STARLINK-6195           
1 56902U 23083AC  23328.12375043 -.00000463  00000+0 -19209-4 0  9990
2 56902  43.0040 294.9145 0001117 256.6720 103.3997 15.02530100 25171
STARLINK-6192           
1 56903U 23083AD  23328.05800130 -.00004907  00000+0 -34853-3 0  9991
2 56903  43.0030 307.4149 0000901 224.0309 136.0462 15.02525043 25021
STARLINK-6193           
1 56904U 23083AE  23328.10044299 -.00000656  00000+0 -33529-4 0  9991
2 56904  43.0026 294.7361 0000896 251.9641 108.1104 15.02530391 25173
STARLINK-6183           
1 56905U 23083AF  23327.99634609 -.00000408  00000+0 -15129-4 0  9999
2 56905  43.0051 295.6807 0001249 262.0121  98.0580 15.02525222 25156
STARLINK-6098           
1 56906U 23083AG  23328.11487608 -.00004733  00000+0 -33550-3 0  9992
2 56906  43.0050 294.8490 0000800 259.7221 100.3531 15.02539376 25171
